{
    "links": {
        "self": "http://www.neowsapp.com/rest/v1/neo/3656414?api_key=iIulBulltgU6a56xZRHN4H3l9WmuAYTsLGpBGhQ2"
    },
    "id": "3656414",
    "neo_reference_id": "3656414",
    "name": "(2014 BQ)",
    "designation": "2014 BQ",
    "nasa_jpl_url": "http://ssd.jpl.nasa.gov/sbdb.cgi?sstr=3656414",
    "absolute_magnitude_h": 24.5,
    "estimated_diameter": {
        "kilometers": {
            "estimated_diameter_min": 0.0334622374,
            "estimated_diameter_max": 0.0748238376
        },
        "meters": {
            "estimated_diameter_min": 33.4622374455,
            "estimated_diameter_max": 74.8238376074
        },
        "miles": {
            "estimated_diameter_min": 0.0207924639,
            "estimated_diameter_max": 0.0464933628
        },
        "feet": {
            "estimated_diameter_min": 109.7842471007,
            "estimated_diameter_max": 245.4850393757
        }
    },
    "is_potentially_hazardous_asteroid": false,
    "close_approach_data": [
        {
            "close_approach_date": "2014-01-21",
            "close_approach_date_full": "2014-Jan-21 07:55",
            "epoch_date_close_approach": 1390290900000,
            "relative_velocity": {
                "kilometers_per_second": "7.7658307444",
                "kilometers_per_hour": "27956.9906800197",
                "miles_per_hour": "17371.38679226"
            },
            "miss_distance": {
                "astronomical": "0.0692880888",
                "lunar": "26.9530665432",
                "kilometers": "10365350.500850856",
                "miles": "6440730.1406035728"
            },
            "orbiting_body": "Earth"
        },
        {
            "close_approach_date": "2020-10-04",
            "close_approach_date_full": "2020-Oct-04 04:37",
            "epoch_date_close_approach": 1601786220000,
            "relative_velocity": {
                "kilometers_per_second": "11.5080456469",
                "kilometers_per_hour": "41428.964328853",
                "miles_per_hour": "25742.3473075587"
            },
            "miss_distance": {
                "astronomical": "1.8738244553",
                "lunar": "728.9177131117",
                "kilometers": "280320147.266790211",
                "miles": "174182862.5449224718"
            },
            "orbiting_body": "Juptr"
        },
        {
            "close_approach_date": "2068-07-17",
            "close_approach_date_full": "2068-Jul-17 14:17",
            "epoch_date_close_approach": 3109760220000,
            "relative_velocity": {
                "kilometers_per_second": "9.9127823325",
                "kilometers_per_hour": "35686.0163971515",
                "miles_per_hour": "22173.9027996634"
            },
            "miss_distance": {
                "astronomical": "1.5513425203",
                "lunar": "603.4722403967",
                "kilometers": "232077536.677311761",
                "miles": "144206294.3565578618"
            },
            "orbiting_body": "Juptr"
        }
    ],
    "orbital_data": {
        "orbit_id": "12",
        "orbit_determination_date": "2017-04-06 08:42:52",
        "first_observation_date": "2014-01-20",
        "last_observation_date": "2014-02-04",
        "data_arc_in_days": 15,
        "observations_used": 65,
        "orbit_uncertainty": "8",
        "minimum_orbit_intersection": ".0690829",
        "jupiter_tisserand_invariant": "2.885",
        "epoch_osculation": "2456680.5",
        "eccentricity": ".6491108039953182",
        "semi_major_axis": "2.998023949905322",
        "inclination": "5.648626235659853",
        "ascending_node_longitude": "293.3730595099486",
        "orbital_period": "1896.055623084753",
        "perihelion_distance": "1.051974213385059",
        "perihelion_argument": "188.0862376679402",
        "aphelion_distance": "4.944073686425585",
        "perihelion_time": "2456679.424639125825",
        "mean_anomaly": ".2041764545246654",
        "mean_motion": ".1898678475551812",
        "equinox": "J2000",
        "orbit_class": {
            "orbit_class_type": "AMO",
            "orbit_class_description": "Near-Earth asteroid orbits similar to that of 1221 Amor",
            "orbit_class_range": "1.017 AU < q (perihelion) < 1.3 AU"
        }
    },
    "is_sentry_object": false
}